STARLINK-30449          
1 57903U 23146N   24176.07022024 -.00000130  00000+0  54272-5 0  9996
2 57903  43.0049 101.4038 0001030 249.6952 110.3780 15.02532859 42202
STARLINK-30466          
1 57904U 23146P   24176.22980849  .00000964  00000+0  86452-4 0  9990
2 57904  43.0069 100.8832 0001838 258.3403 101.7233 15.02538806 42221
STARLINK-30451          
1 57905U 23146Q   24176.13337126 -.00000275  00000+0 -52680-5 0  9999
2 57905  43.0039 101.0183 0001079 264.0720  95.9999 15.02532668 42216
STARLINK-30428          
1 57906U 23146R   24176.16000381  .00000874  00000+0  79714-4 0  9992
2 57906  43.0040 101.2219 0000955 272.8432  87.2301 15.02540694 42219
STARLINK-30482          
1 57907U 23146S   24176.22315026  .00000335  00000+0  39896-4 0  9994
2 57907  43.0042 100.8355 0001218 266.0063  94.0640 15.02537436 42230
STARLINK-30464          
1 57908U 23146T   24176.21649105  .00001614  00000+0  13454-3 0  9994
2 57908  43.0040 100.7841 0001237 261.6359  98.4344 15.02537815 42227
STARLINK-30463          
1 57909U 23146U   24176.15331556  .00002318  00000+0  18648-3 0  9998
2 57909  43.0032 101.1711 0001760 258.5295 101.5350 15.02557877 42217
STARLINK-30453          
1 57910U 23146V   24176.14668515  .00001279  00000+0  10971-3 0  9993
2 57910  43.0045 101.1231 0001258 264.8704  95.1995 15.02537653 42210
STARLINK-30478          
1 57911U 23146W   24176.13225525  .00000516  00000+0  53293-4 0  9991
2 57911  43.0047 101.0088 0001286 265.2861  94.7835 15.02536257 43276
STARLINK-30477          
1 57912U 23146X   24176.20983268  .00000013  00000+0  16013-4 0  9996
2 57912  43.0035 100.7344 0001240 266.7916  93.2784 15.02537423 43286
STARLINK-30450          
1 57913U 23147A   24176.26283135  .00000245  00000+0  33178-4 0  9998
2 57913  43.0046 113.9906 0001181 270.3222  89.7485 15.02537338 42804
STARLINK-30483          
1 57914U 23147B   24176.10143785 -.00000274  00000+0 -63105-6 0  9997
2 57914  43.0036  95.8036 0001219 270.8857  89.1855 15.25931913 43007
STARLINK-30454          
1 57915U 23147C   24176.25617124  .00001009  00000+0  89782-4 0  9999
2 57915  43.0033 113.9359 0001114 254.5603 105.5116 15.02538973 42801
STARLINK-30491          
1 57916U 23147D   24176.58335648  .00256786  00000+0  48592-2 0  9990
2 57916  43.0051  76.9911 0032989 215.2205 200.9677 15.46136386  5430
STARLINK-30501          
1 57917U 23147E   24176.18636489  .00000453  00000+0  48568-4 0  9997
2 57917  43.0031 114.2739 0001166 273.9903  86.0806 15.02537364 42826
STARLINK-30499          
1 57918U 23147F   24176.18992011  .00001407  00000+0  63635-4 0  9996
2 57918  43.0008  98.1611 0001682 256.5978 103.4686 15.25912988 43018
STARLINK-30496          
1 57919U 23147G   24176.24618670 -.00000354  00000+0 -11114-4 0  9997
2 57919  43.0034 113.8639 0000898 269.4618  90.6121 15.02534789 42839
STARLINK-30485          
1 57920U 23147H   24176.24285822 -.00000074  00000+0  96306-5 0  9993
2 57920  43.0042 113.8400 0001261 265.9874  94.0824 15.02534855 42838
STARLINK-30492          
1 57921U 23147J   24176.23952301  .00000662  00000+0  64105-4 0  9999
2 57921  43.0042 113.8157 0001256 261.1477  98.9223 15.02537305 42805
STARLINK-30440          
1 57923U 23147L   24176.23619560  .00002737  00000+0  21757-3 0  9998
2 57923  43.0041 113.7883 0001071 273.5806  86.4914 15.02539227 42836
STARLINK-30487          
1 57924U 23147M   24176.14973890  .00001474  00000+0  12416-3 0  9997
2 57924  42.9999 113.9840 0001048 304.1673  55.9070 15.02540991 42822
STARLINK-30452          
1 57925U 23147N   24176.23286240  .00001135  00000+0  99075-4 0  9995
2 57925  43.0045 113.7644 0001146 263.3222  96.7490 15.02537607 42809
STARLINK-30468          
1 57926U 23147P   24176.22953233  .00001362  00000+0  11584-3 0  9998
2 57926  43.0035 113.7414 0001074 254.9455 105.1269 15.02538225 42804
STARLINK-30459          
1 57927U 23147Q   24176.62000084  .00025854  00000+0  10761-2 0  9997
2 57927  43.0010  94.5345 0005076 220.0983 139.9493 15.23267919 43068
STARLINK-30448          
1 57928U 23147R   24176.22286865  .00001704  00000+0  14114-3 0  9992
2 57928  43.0041 113.6892 0001116 266.1095  93.9620 15.02541304 42801
STARLINK-30475          
1 57929U 23147S   24176.18751819  .00003009  00000+0  12479-3 0  9996
2 57929  43.0008  97.2824 0001334 269.8612  90.2086 15.25920751 42992
STARLINK-30476          
1 57930U 23147T   24176.84470391  .00000067  00000+0  20058-4 0  9998
2 57930  43.0041  97.3050 0000959 267.0758  92.9975 15.02535180 43020
STARLINK-30488          
1 57931U 23147U   24176.21955003  .00002233  00000+0  18036-3 0  9997
2 57931  43.0046 113.6621 0001448 271.9460  88.1217 15.02534209 42835
STARLINK-30471          
1 57932U 23147V   24175.93698433  .00000638  00000+0  62248-4 0  9999
2 57932  43.0009 114.9838 0000797 266.2707  93.8044 15.02536806 42764
STARLINK-30461          
1 57933U 23147W   24176.21290227  .00000860  00000+0  78752-4 0  9995
2 57933  43.0029 113.6175 0001005 281.7711  78.3018 15.02531105 42808
STARLINK-30458          
1 57934U 23147X   24176.27603611  .00003064  00000+0  24186-3 0  9997
2 57934  43.0038 113.2287 0000969 271.6018  88.4714 15.02523484 42812
STARLINK-30712          
1 57935U 23148A   24176.88907252 -.00000575  00000+0 -81087-5 0  9995
2 57935  53.1760  37.4304 0001260  85.0502 275.0642 15.28030202 42985
STARLINK-30716          
1 57936U 23148B   24176.86100285 -.00001827  00000+0 -53324-4 0  9998
2 57936  53.1699  37.1526 0001448  95.6197 264.4968 15.28018139 42972
STARLINK-30400          
1 57937U 23148C   24176.88440620  .00007519  00000+0  28381-3 0  9997
2 57937  53.1672  37.4170 0001238  86.4135 273.7007 15.28022486 42987
STARLINK-30710          
1 57938U 23148D   24176.87342397  .00000715  00000+0  38476-4 0  9997
2 57938  53.1479  30.4223 0000897 100.8911 259.2190 15.28019146 43069
STARLINK-30714          
1 57939U 23148E   24176.79592713 -.00000321  00000+0  10876-5 0  9997
2 57939  53.1678  37.5080 0001199  89.4057 270.7080 15.28017479 42960
STARLINK-30711          
1 57940U 23148F   24176.84697174 -.00001869  00000+0 -54833-4 0  9991
2 57940  53.1663  37.0437 0001354  81.3599 278.7554 15.28011762 42987
STARLINK-30715          
1 57941U 23148G   24176.85666021 -.00001221  00000+0 -31417-4 0  9995
2 57941  53.1686  37.1217 0001399  74.6939 285.4216 15.28015555 42986
STARLINK-30455          
1 57942U 23148H   24176.85163660  .00004593  00000+0  17842-3 0  9995
2 57942  53.1538  36.9849 0001377  85.3864 274.7293 15.28015589 42986
STARLINK-30456          
1 57943U 23148J   24176.85633203  .00000536  00000+0  32011-4 0  9990
2 57943  53.1648  37.2731 0001288  79.4030 280.7115 15.28018703 42973
STARLINK-30708          
1 57944U 23148K   24176.88006168  .00000393  00000+0  26864-4 0  9998
2 57944  53.1706  37.3979 0001798 130.0104 230.1054 15.28013486 43038
STARLINK-30705          
1 57945U 23148L   24176.87071605  .00005980  00000+0  22834-3 0  9995
2 57945  53.1774  37.3114 0001315  97.1901 262.9249 15.28025475 42970
STARLINK-30704          
1 57946U 23148M   24176.86783837 -.00001035  00000+0 -52983-4 0  9990
2 57946  53.1642  49.1425 0001599 113.1595 246.9563 15.04915270 42812
STARLINK-30706          
1 57947U 23148N   24176.80028368  .00009239  00000+0  34586-3 0  9996
2 57947  53.1641  37.6278 0001233 103.2683 256.8455 15.28015727 42963
STARLINK-30709          
1 57948U 23148P   24176.84738392 -.00000543  00000+0 -69505-5 0  9998
2 57948  53.1620  37.7456 0001425 104.5242 255.5916 15.28013507 42960
STARLINK-30707          
1 57949U 23148Q   24176.86603021  .00001780  00000+0  76903-4 0  9992
2 57949  53.1765  37.2773 0001288  73.3255 286.7887 15.28021761 42988
STARLINK-30701          
1 57950U 23148R   24176.87505451  .00000512  00000+0  31149-4 0  9998
2 57950  53.1737  37.3542 0001570  57.8586 302.2566 15.28016828 42988
STARLINK-30399          
1 57951U 23148S   24176.87537614 -.00004686  00000+0 -15662-3 0  9994
2 57951  53.1669  37.3732 0001333  86.9626 273.1526 15.28018670 42988
STARLINK-30713          
1 57952U 23148T   24176.00169283 -.00001471  00000+0 -40469-4 0  9996
2 57952  53.1757  41.1355 0001193  66.7820 293.3305 15.28014576 42932
STARLINK-30700          
1 57953U 23148U   24176.84501252 -.00001003  00000+0 -23552-4 0  9990
2 57953  53.1491  27.5186 0002068  45.5882 314.5287 15.28015730 43101
STARLINK-30703          
1 57954U 23148V   24176.88714332  .00006444  00000+0  24519-3 0  9995
2 57954  53.1726  28.0819 0002076 131.8493 228.2685 15.28008463 43106
STARLINK-30702          
1 57955U 23148W   24175.87328443 -.00001634  00000+0 -46333-4 0  9995
2 57955  53.1757  32.3954 0001293  73.7806 286.3336 15.28022015 43041
STARLINK-30396          
1 57964U 23151A   24176.26581703  .00000077  00000+0  20798-4 0  9998
2 57964  43.0039 126.3782 0001127 269.3290  90.7424 15.02537193 41954
STARLINK-30524          
1 57965U 23151B   24176.30343541  .00000930  00000+0  83925-4 0  9999
2 57965  43.0027 125.8090 0001214 269.9023  90.1680 15.02540229 41968
STARLINK-30521          
1 57966U 23151C   24176.24472922 -.00000568  00000+0 -26951-4 0  9994
2 57966  43.0028 126.2219 0000818 278.8667  81.2083 15.02535784 41957
STARLINK-30528          
1 57967U 23151D   24176.24140264  .00000123  00000+0  24167-4 0  9998
2 57967  43.0020 126.1955 0000880 285.8479  74.2266 15.02536606 41942
STARLINK-30495          
1 57968U 23151E   24176.27136035  .00000478  00000+0  50458-4 0  9998
2 57968  43.0039 126.4140 0001003 278.1343  81.9386 15.02529493 41950
STARLINK-30484          
1 57969U 23151F   24176.23806624  .00000554  00000+0  56097-4 0  9993
2 57969  43.0031 126.1689 0001101 275.9009  84.1708 15.02540148 41954
STARLINK-30494          
1 57970U 23151G   24176.28135380  .00001603  00000+0  13372-3 0  9998
2 57970  43.0041 126.4768 0001186 263.0823  96.9885 15.02536113 41957
